STARLINK-1210_new
1 15207C 20012AF  21326.12488527  .00008446  00000-0  56609-3 0  3269
2 15207  53.0529 228.1762 0002072  69.9932  75.0207 15.06376346    14
STARLINK-1210_old
1 25207C 20012AF  21325.11908101  .00004199  00000-0  28133-3 0  3253
2 25207  53.0534 232.6912 0002151  69.3159  18.1542 15.06397269    17
